SKYKRAFT-1A             
1 55054U 23001AX  26068.71064616  .00008177  00000+0  30069-3 0  9991
2 55054  97.3349 127.6290 0011277 121.5092 238.7251 15.28083228176529
STARLINK-31844          
1 60583U 24150A   26068.87252156 -.00005675  00000+0 -17950-3 0  9991
2 60583  53.1602 305.8736 0000760  93.5651 266.5437 15.30224977 88071
